SITRO-AIS 26            
1 59067U 24039S   24069.89127750  .00008130  00000+0  80291-3 0  9999
2 59067  95.3932  30.2336 0174092 324.8515  34.1316 14.81357637  1406
SITRO-AIS 27            
1 59068U 24039T   24069.89065071  .00008831  00000+0  86993-3 0  9990
2 59068  95.3934  30.2348 0173921 324.7548  34.2267 14.81456549  1405
SITRO-AIS 28            
1 59071U 24039U   24069.89040805  .00008311  00000+0  81855-3 0  9997
2 59071  95.3935  30.2354 0173774 324.7545  34.2279 14.81493922  1409
